OBJECT_NAME,OBJECT_ID,EPOCH,MEAN_MOTION,ECCENTRICITY,INCLINATION,RA_OF_ASC_NODE,ARG_OF_PERICENTER,MEAN_ANOMALY,EPHEMERIS_TYPE,CLASSIFICATION_TYPE,NORAD_CAT_ID,ELEMENT_SET_NO,REV_AT_EPOCH,BSTAR,MEAN_MOTION_DOT,MEAN_MOTION_DDOT
IRIDIUM 33 DEB,1997-051VZ,2024-05-22T04:13:40.336320,14.4128645,0.0008229,86.3774,295.3667,202.3105,157.7738,0,U,36483,999,77664,0.0014161,4.597e-05,0
IRIDIUM 33 DEB,1997-051WB,2024-05-11T03:38:24.477216,14.71108841,0.0074277,86.4354,29.2608,268.9468,90.3238,0,U,36485,999,58164,0.034232,0.00226444,0
IRIDIUM 33 DEB,1997-051WD,2024-06-01T09:36:36.805536,14.41792035,0.0101689,86.3526,35.108,301.2942,57.8331,0,U,36487,999,61487,0.0059128,0.00020602,0
IRIDIUM 33 DEB,1997-051WG,2024-05-30T13:52:08.159808,14.58100522,0.0004187,86.3711,259.8075,153.806,206.3362,0,U,36490,999,78252,0.0018532,8.554e-05,0
IRIDIUM 33 DEB,1997-051WK,2024-06-01T13:58:43.465728,14.53239858,0.0015587,86.3602,257.7101,90.7791,269.5202,0,U,36493,999,66361,0.0014351,5.98e-05,0
IRIDIUM 33 DEB,1997-051WP,2024-05-04T08:56:56.964192,14.46358868,0.0059046,86.1638,165.0016,300.0562,59.4792,0,U,36497,999,77585,0.0012448,4.583e-05,0
IRIDIUM 33 DEB,1997-051WV,2024-06-01T01:21:20.667744,14.64107244,0.0082777,86.4132,59.0366,198.1367,161.689,0,U,36566,999,76542,0.006899,0.00038273,0
IRIDIUM 33 DEB,1997-051XH,2024-05-21T03:32:55.679424,14.42549714,0.0025103,86.3507,289.9367,296.0294,63.8322,0,U,37548,999,57278,0.0027228,9.088e-05,0
IRIDIUM 33 DEB,1997-051XK,2024-05-29T14:51:12.899520,14.54258068,0.0002614,86.3797,270.4178,190.7952,169.3199,0,U,37550,999,78122,0.0013746,5.845e-05,0
IRIDIUM 33 DEB,1997-051XT,2024-06-01T14:53:46.799520,14.92066155,0.0023486,86.3835,278.3332,358.595,1.5208,0,U,37558,999,53452,0.0044102,0.00045256,0
IRIDIUM 33 DEB,1997-051XX,2024-06-01T03:08:56.878368,14.47078673,0.0028399,86.3746,285.7704,180.9643,352.0056,0,U,37562,999,78206,0.0016997,6.241e-05,0
IRIDIUM 33 DEB,1997-051YD,2024-05-30T16:16:22.420992,14.21469091,0.0161049,86.331,45.3066,131.7667,229.7417,0,U,38017,999,68959,0.0058502,0.00014629,0
IRIDIUM 33 DEB,1997-051YG,2024-05-23T20:26:12.361344,14.5535647,0.0102778,86.2812,348.2796,250.3228,108.6868,0,U,38020,999,76314,0.009181,0.00042999,0
IRIDIUM 33 DEB,1997-051YJ,2024-05-25T01:10:42.531168,14.34992206,0.0054552,86.2766,263.099,106.1138,254.6073,0,U,38022,999,61047,0.002143,6.224e-05,0
IRIDIUM 33 DEB,1997-051YQ,2024-05-18T00:38:11.748768,14.43018888,0.0028064,86.3274,248.9239,222.038,137.8667,0,U,38028,999,57211,0.00077668,2.632e-05,0
IRIDIUM 33 DEB,1997-051YZ,2024-05-03T13:13:49.252800,14.32287723,0.0141833,86.3119,51.7189,195.087,290.877,0,U,38225,999,53969,0.0044027,0.00013309,0
IRIDIUM 33 DEB,1997-051ZB,2024-05-13T11:27:45.227520,14.75610356,0.0001165,86.3023,208.3854,10.4617,349.6625,0,U,38227,999,57346,0.0058101,0.00039843,0
IRIDIUM 33 DEB,1997-051ZC,2024-05-28T03:45:49.819968,14.25336582,0.0065957,86.2942,287.5724,202.7728,332.7575,0,U,38228,999,76747,0.0006136,1.497e-05,0
IRIDIUM 33 DEB,1997-051ZD,2024-05-25T14:02:39.460416,14.13740577,0.0189369,86.3719,96.1554,23.8654,337.1167,0,U,38229,999,73652,0.011962,0.00026933,0
IRIDIUM 33 DEB,1997-051ZL,2024-05-27T04:19:02.832096,14.63222672,0.004418,86.2418,226.1347,319.0684,40.7213,0,U,38236,999,53390,0.0042911,0.00022482,0
IRIDIUM 33 DEB,1997-051ZR,2024-05-30T00:13:42.041568,14.4845578,0.0005569,86.3269,237.0743,125.5919,234.5804,0,U,38241,999,52049,0.00082046,3.094e-05,0
IRIDIUM 33 DEB,1997-051ZW,2024-05-28T05:24:18.450720,14.51126278,0.0113405,86.2644,326.9513,179.4845,180.6499,0,U,38469,999,52940,0.0092962,0.00040268,0
IRIDIUM 33 DEB,1997-051AAB,2024-06-01T13:27:58.588128,14.45815592,0.0030548,86.3424,252.6758,144.6097,215.7141,0,U,38474,999,78293,0.00093098,3.341e-05,0
IRIDIUM 33 DEB,1997-051AAE,2024-06-01T03:54:44.965152,13.49816883,0.0439707,86.4076,310.6043,44.3067,319.2405,0,U,38477,999,47095,0.0032612,3.79e-05,0
IRIDIUM 33 DEB,1997-051AAG,2024-05-19T03:19:00.213888,14.66078478,0.0007952,86.3923,286.0654,316.6686,43.3901,0,U,39594,999,55406,0.0057501,0.00031704,0
IRIDIUM 33 DEB,1997-051AAJ,2024-05-31T18:34:31.135872,14.39735434,0.0070955,85.9716,83.3521,248.7838,110.5771,0,U,39777,999,52079,0.0044831,0.00014498,0
IRIDIUM 33 DEB,1997-051AAK,2024-05-31T19:21:31.760640,14.46479678,0.0010771,86.3808,284.743,99.1116,261.1305,0,U,39778,999,55298,0.0013843,5.002e-05,0
IRIDIUM 33 DEB,1997-051AAN,2024-05-28T05:25:42.866976,14.03124123,0.0209882,86.3536,126.483,276.8453,91.3253,0,U,39781,999,148,0.0037854,7.171e-05,0
IRIDIUM 33 DEB,1997-051AAQ,2024-05-28T07:20:16.323936,14.56916555,0.0045854,86.1647,167.5909,342.165,31.963,0,U,39783,999,52446,0.0030097,0.00013733,0
IRIDIUM 33 DEB,1997-051AAZ,2024-06-01T02:01:34.675104,14.28186267,0.0149147,86.4041,91.1149,93.7842,268.0418,0,U,39792,999,51359,0.0078457,0.00022067,0
