IRIDIUM 33 DEB          
1 36483U 97051VZ  24143.17616130  .00004597  00000+0  14161-2 0  9994
2 36483  86.3774 295.3667 0008229 202.3105 157.7738 14.41286450776646
IRIDIUM 33 DEB          
1 36485U 97051WB  24132.15167219  .00226444  00000+0  34232-1 0  9998
2 36485  86.4354  29.2608 0074277 268.9468  90.3238 14.71108841581649
IRIDIUM 33 DEB          
1 36487U 97051WD  24153.40042599  .00020602  00000+0  59128-2 0  9994
2 36487  86.3526  35.1080 0101689 301.2942  57.8331 14.41792035614872
IRIDIUM 33 DEB          
1 36490U 97051WG  24151.57787222  .00008554  00000+0  18532-2 0  9999
2 36490  86.3711 259.8075 0004187 153.8060 206.3362 14.58100522782523
IRIDIUM 33 DEB          
1 36493U 97051WK  24153.58244752  .00005980  00000+0  14351-2 0  9996
2 36493  86.3602 257.7101 0015587  90.7791 269.5202 14.53239858663610
IRIDIUM 33 DEB          
1 36497U 97051WP  24125.37288153  .00004583  00000+0  12448-2 0  9992
2 36497  86.1638 165.0016 0059046 300.0562  59.4792 14.46358868775853
IRIDIUM 33 DEB          
1 36566U 97051WV  24153.05648921  .00038273  00000+0  68990-2 0  9994
2 36566  86.4132  59.0366 0082777 198.1367 161.6890 14.64107244765425
IRIDIUM 33 DEB          
1 37548U 97051XH  24142.14786666  .00009088  00000+0  27228-2 0  9993
2 37548  86.3507 289.9367 0025103 296.0294  63.8322 14.42549714572789
IRIDIUM 33 DEB          
1 37550U 97051XK  24150.61889930  .00005845  00000+0  13746-2 0  9992
2 37550  86.3797 270.4178 0002614 190.7952 169.3199 14.54258068781228
IRIDIUM 33 DEB          
1 37558U 97051XT  24153.62068055  .00045256  00000+0  44102-2 0  9991
2 37558  86.3835 278.3332 0023486 358.5950   1.5208 14.92066155534523
IRIDIUM 33 DEB          
1 37562U 97051XX  24153.13121387  .00006241  00000+0  16997-2 0  9992
2 37562  86.3746 285.7704 0028399 180.9643 352.0056 14.47078673782065
IRIDIUM 33 DEB          
1 38017U 97051YD  24151.67803728  .00014629  00000+0  58502-2 0  9998
2 38017  86.3310  45.3066 0161049 131.7667 229.7417 14.21469091689594
IRIDIUM 33 DEB          
1 38020U 97051YG  24144.85153196  .00042999  00000+0  91810-2 0  9991
2 38020  86.2812 348.2796 0102778 250.3228 108.6868 14.55356470763146
IRIDIUM 33 DEB          
1 38022U 97051YJ  24146.04910337  .00006224  00000+0  21430-2 0  9996
2 38022  86.2766 263.0990 0054552 106.1138 254.6073 14.34992206610477
IRIDIUM 33 DEB          
1 38028U 97051YQ  24139.02652487  .00002632  00000+0  77668-3 0  9995
2 38028  86.3274 248.9239 0028064 222.0380 137.8667 14.43018888572116
IRIDIUM 33 DEB          
1 38225U 97051YZ  24124.55126450  .00013309  00000+0  44027-2 0  9997
2 38225  86.3119  51.7189 0141833 195.0870 290.8770 14.32287723539695
IRIDIUM 33 DEB          
1 38227U 97051ZB  24134.47760680  .00039843  00000+0  58101-2 0  9999
2 38227  86.3023 208.3854 0001165  10.4617 349.6625 14.75610356573466
IRIDIUM 33 DEB          
1 38228U 97051ZC  24149.15682662  .00001497  00000+0  61360-3 0  9990
2 38228  86.2942 287.5724 0065957 202.7728 332.7575 14.25336582767473
IRIDIUM 33 DEB          
1 38229U 97051ZD  24146.58517894  .00026933  00000+0  11962-1 0  9992
2 38229  86.3719  96.1554 0189369  23.8654 337.1167 14.13740577736524
IRIDIUM 33 DEB          
1 38236U 97051ZL  24148.17989389  .00022482  00000+0  42911-2 0  9993
2 38236  86.2418 226.1347 0044180 319.0684  40.7213 14.63222672533908
IRIDIUM 33 DEB          
1 38241U 97051ZR  24151.00951437  .00003094  00000+0  82046-3 0  9990
2 38241  86.3269 237.0743 0005569 125.5919 234.5804 14.48455780520499
IRIDIUM 33 DEB          
1 38469U 97051ZW  24149.22521355  .00040268  00000+0  92962-2 0  9996
2 38469  86.2644 326.9513 0113405 179.4845 180.6499 14.51126278529407
IRIDIUM 33 DEB          
1 38474U 97051AAB 24153.56109477  .00003341  00000+0  93098-3 0  9994
2 38474  86.3424 252.6758 0030548 144.6097 215.7141 14.45815592782935
IRIDIUM 33 DEB          
1 38477U 97051AAE 24153.16302043  .00003790  00000+0  32612-2 0  9999
2 38477  86.4076 310.6043 0439707  44.3067 319.2405 13.49816883470953
IRIDIUM 33 DEB          
1 39594U 97051AAG 24140.13819692  .00031704  00000+0  57501-2 0  9996
2 39594  86.3923 286.0654 0007952 316.6686  43.3901 14.66078478554064
IRIDIUM 33 DEB          
1 39777U 97051AAJ 24152.77397148  .00014498  00000+0  44831-2 0  9992
2 39777  85.9716  83.3521 0070955 248.7838 110.5771 14.39735434520797
IRIDIUM 33 DEB          
1 39778U 97051AAK 24152.80661760  .00005002  00000+0  13843-2 0  9991
2 39778  86.3808 284.7430 0010771  99.1116 261.1305 14.46479678552983
IRIDIUM 33 DEB          
1 39781U 97051AAN 24149.22619059  .00007171  00000+0  37854-2 0  9998
2 39781  86.3536 126.4830 0209882 276.8453  91.3253 14.03124123  1486
IRIDIUM 33 DEB          
1 39783U 97051AAQ 24149.30574449  .00013733  00000+0  30097-2 0  9995
2 39783  86.1647 167.5909 0045854 342.1650  31.9630 14.56916555524468
IRIDIUM 33 DEB          
1 39792U 97051AAZ 24153.08442911  .00022067  00000+0  78457-2 0  9995
2 39792  86.4041  91.1149 0149147  93.7842 268.0418 14.28186267513596
